[
  {
    "OBJECT_NAME": "STARLINK-35734",
    "OBJECT_ID": "25244V",
    "EPOCH": "2025-11-11T06:00:02.000160",
    "MEAN_MOTION": 15.72227544,
    "ECCENTRICITY": 0.0001338,
    "INCLINATION": 53.1586,
    "RA_OF_ASC_NODE": 65.4441,
    "ARG_OF_PERICENTER": 88.165,
    "MEAN_ANOMALY": 141.5636,
    "EPHEMERIS_TYPE": 0,
    "CLASSIFICATION_TYPE": "U",
    "NORAD_CAT_ID": 66225,
    "ELEMENT_SET_NO": 999,
    "REV_AT_EPOCH": 315,
    "BSTAR": 0.0,
    "MEAN_MOTION_DOT": -0.01870369,
    "MEAN_MOTION_DDOT": 0.0,
    "TLE_LINE1": "1 66225U 25244V   25315.25002315 -.01870369  00000+0 -15948-1 0  9995",
    "TLE_LINE2": "2 66225  53.1586  65.4441 0001338  88.1650 141.5636 15.72227544  3152",
    "COMMENT": "Grouped by shell and plane from TLE"
  },
  {
    "OBJECT_NAME": "STARLINK-34466",
    "OBJECT_ID": "25244W",
    "EPOCH": "2025-11-11T06:00:02.000160",
    "MEAN_MOTION": 15.72223719,
    "ECCENTRICITY": 0.0001291,
    "INCLINATION": 53.1585,
    "RA_OF_ASC_NODE": 65.4357,
    "ARG_OF_PERICENTER": 100.0841,
    "MEAN_ANOMALY": 133.4836,
    "EPHEMERIS_TYPE": 0,
    "CLASSIFICATION_TYPE": "U",
    "NORAD_CAT_ID": 66226,
    "ELEMENT_SET_NO": 999,
    "REV_AT_EPOCH": 347,
    "BSTAR": 0.0,
    "MEAN_MOTION_DOT": -0.01867463,
    "MEAN_MOTION_DDOT": 0.0,
    "TLE_LINE1": "1 66226U 25244W   25315.25002315 -.01867463  00000+0 -15923-1 0  9990",
    "TLE_LINE2": "2 66226  53.1585  65.4357 0001291 100.0841 133.4836 15.72223719  3479",
    "COMMENT": "Grouped by shell and plane from TLE"
  },
  {
    "OBJECT_NAME": "STARLINK-34882",
    "OBJECT_ID": "25244X",
    "EPOCH": "2025-11-11T06:00:02.000160",
    "MEAN_MOTION": 15.72224207,
    "ECCENTRICITY": 0.0001122,
    "INCLINATION": 53.1586,
    "RA_OF_ASC_NODE": 65.4313,
    "ARG_OF_PERICENTER": 92.5739,
    "MEAN_ANOMALY": 142.9121,
    "EPHEMERIS_TYPE": 0,
    "CLASSIFICATION_TYPE": "U",
    "NORAD_CAT_ID": 66227,
    "ELEMENT_SET_NO": 999,
    "REV_AT_EPOCH": 347,
    "BSTAR": 0.0,
    "MEAN_MOTION_DOT": -0.01869861,
    "MEAN_MOTION_DDOT": 0.0,
    "TLE_LINE1": "1 66227U 25244X   25315.25002315 -.01869861  00000+0 -15947-1 0  9991",
    "TLE_LINE2": "2 66227  53.1586  65.4313 0001122  92.5739 142.9121 15.72224207  3472",
    "COMMENT": "Grouped by shell and plane from TLE"
  },
  {
    "OBJECT_NAME": "STARLINK-35731",
    "OBJECT_ID": "25244Y",
    "EPOCH": "2025-11-11T06:00:02.000160",
    "MEAN_MOTION": 15.72230655,
    "ECCENTRICITY": 0.0001106,
    "INCLINATION": 53.1587,
    "RA_OF_ASC_NODE": 65.4273,
    "ARG_OF_PERICENTER": 75.516,
    "MEAN_ANOMALY": 161.8751,
    "EPHEMERIS_TYPE": 0,
    "CLASSIFICATION_TYPE": "U",
    "NORAD_CAT_ID": 66228,
    "ELEMENT_SET_NO": 999,
    "REV_AT_EPOCH": 315,
    "BSTAR": 0.0,
    "MEAN_MOTION_DOT": -0.01871746,
    "MEAN_MOTION_DDOT": 0.0,
    "TLE_LINE1": "1 66228U 25244Y   25315.25002315 -.01871746  00000+0 -15962-1 0  9994",
    "TLE_LINE2": "2 66228  53.1587  65.4273 0001106  75.5160 161.8751 15.72230655  3158",
    "COMMENT": "Grouped by shell and plane from TLE"
  },
  {
    "OBJECT_NAME": "STARLINK-35758",
    "OBJECT_ID": "25244Z",
    "EPOCH": "2025-11-11T06:00:02.000160",
    "MEAN_MOTION": 15.72218842,
    "ECCENTRICITY": 0.0001176,
    "INCLINATION": 53.1585,
    "RA_OF_ASC_NODE": 65.4238,
    "ARG_OF_PERICENTER": 87.6395,
    "MEAN_ANOMALY": 151.6793,
    "EPHEMERIS_TYPE": 0,
    "CLASSIFICATION_TYPE": "U",
    "NORAD_CAT_ID": 66229,
    "ELEMENT_SET_NO": 999,
    "REV_AT_EPOCH": 315,
    "BSTAR": 0.0,
    "MEAN_MOTION_DOT": -0.01860669,
    "MEAN_MOTION_DDOT": 0.0,
    "TLE_LINE1": "1 66229U 25244Z   25315.25002315 -.01860669  00000+0 -15860-1 0  9994",
    "TLE_LINE2": "2 66229  53.1585  65.4238 0001176  87.6395 151.6793 15.72218842  3156",
    "COMMENT": "Grouped by shell and plane from TLE"
  },
  {
    "OBJECT_NAME": "STARLINK-35736",
    "OBJECT_ID": "25244AA",
    "EPOCH": "2025-11-11T06:00:02.000160",
    "MEAN_MOTION": 15.72223336,
    "ECCENTRICITY": 0.0001272,
    "INCLINATION": 53.1588,
    "RA_OF_ASC_NODE": 65.4198,
    "ARG_OF_PERICENTER": 98.5779,
    "MEAN_ANOMALY": 142.6555,
    "EPHEMERIS_TYPE": 0,
    "CLASSIFICATION_TYPE": "U",
    "NORAD_CAT_ID": 66230,
    "ELEMENT_SET_NO": 999,
    "REV_AT_EPOCH": 315,
    "BSTAR": 0.0,
    "MEAN_MOTION_DOT": -0.01865113,
    "MEAN_MOTION_DDOT": 0.0,
    "TLE_LINE1": "1 66230U 25244AA  25315.25002315 -.01865113  00000+0 -15900-1 0  9990",
    "TLE_LINE2": "2 66230  53.1588  65.4198 0001272  98.5779 142.6555 15.72223336  3150",
    "COMMENT": "Grouped by shell and plane from TLE"
  },
  {
    "OBJECT_NAME": "STARLINK-35735",
    "OBJECT_ID": "25244AB",
    "EPOCH": "2025-11-11T06:00:02.000160",
    "MEAN_MOTION": 15.72219169,
    "ECCENTRICITY": 0.0001193,
    "INCLINATION": 53.1586,
    "RA_OF_ASC_NODE": 65.416,
    "ARG_OF_PERICENTER": 88.2277,
    "MEAN_ANOMALY": 154.9238,
    "EPHEMERIS_TYPE": 0,
    "CLASSIFICATION_TYPE": "U",
    "NORAD_CAT_ID": 66231,
    "ELEMENT_SET_NO": 999,
    "REV_AT_EPOCH": 315,
    "BSTAR": 0.0,
    "MEAN_MOTION_DOT": -0.01860446,
    "MEAN_MOTION_DDOT": 0.0,
    "TLE_LINE1": "1 66231U 25244AB  25315.25002315 -.01860446  00000+0 -15858-1 0  9997",
    "TLE_LINE2": "2 66231  53.1586  65.4160 0001193  88.2277 154.9238 15.72219169  3152",
    "COMMENT": "Grouped by shell and plane from TLE"
  },
  {
    "OBJECT_NAME": "STARLINK-35753",
    "OBJECT_ID": "25244AC",
    "EPOCH": "2025-11-11T06:00:02.000160",
    "MEAN_MOTION": 15.72219674,
    "ECCENTRICITY": 0.0001222,
    "INCLINATION": 53.1586,
    "RA_OF_ASC_NODE": 65.4128,
    "ARG_OF_PERICENTER": 89.3675,
    "MEAN_ANOMALY": 155.7058,
    "EPHEMERIS_TYPE": 0,
    "CLASSIFICATION_TYPE": "U",
    "NORAD_CAT_ID": 66232,
    "ELEMENT_SET_NO": 999,
    "REV_AT_EPOCH": 315,
    "BSTAR": 0.0,
    "MEAN_MOTION_DOT": -0.0186667,
    "MEAN_MOTION_DDOT": 0.0,
    "TLE_LINE1": "1 66232U 25244AC  25315.25002315 -.01866670  00000+0 -15918-1 0  9990",
    "TLE_LINE2": "2 66232  53.1586  65.4128 0001222  89.3675 155.7058 15.72219674  3154",
    "COMMENT": "Grouped by shell and plane from TLE"
  },
  {
    "OBJECT_NAME": "STARLINK-35626",
    "OBJECT_ID": "25244AD",
    "EPOCH": "2025-11-11T06:00:02.000160",
    "MEAN_MOTION": 15.72218058,
    "ECCENTRICITY": 0.0001127,
    "INCLINATION": 53.1586,
    "RA_OF_ASC_NODE": 65.4086,
    "ARG_OF_PERICENTER": 90.9248,
    "MEAN_ANOMALY": 156.0665,
    "EPHEMERIS_TYPE": 0,
    "CLASSIFICATION_TYPE": "U",
    "NORAD_CAT_ID": 66233,
    "ELEMENT_SET_NO": 999,
    "REV_AT_EPOCH": 331,
    "BSTAR": 0.0,
    "MEAN_MOTION_DOT": -0.01864538,
    "MEAN_MOTION_DDOT": 0.0,
    "TLE_LINE1": "1 66233U 25244AD  25315.25002315 -.01864538  00000+0 -15899-1 0  9990",
    "TLE_LINE2": "2 66233  53.1586  65.4086 0001127  90.9248 156.0665 15.72218058  3317",
    "COMMENT": "Grouped by shell and plane from TLE"
  }
]